STARLINK-1470           
1 45772U 20038AU  26068.60892913  .00054678  00000+0  19687-2 0  9990
2 45772  53.0480 174.6971 0002444  12.8687 347.2373 15.28074860317065
STARLINK-31770          
1 59601U 24080A   26068.91388428  .00001280  00000+0  56033-4 0  9991
2 59601  43.0045  36.9282 0001309 290.5705  69.5007 15.27574324105777
